[{"OBJECT_NAME":"STARLINK-5106","OBJECT_ID":"2022-177D","EPOCH":"2026-03-09T05:32:34.269216","MEAN_MOTION":15.02534164,"ECCENTRICITY":0.00011238,"INCLINATION":43.006,"RA_OF_ASC_NODE":136.0572,"ARG_OF_PERICENTER":254.3971,"MEAN_ANOMALY":105.6747,"EPHEMERIS_TYPE":0,"CLASSIFICATION_TYPE":"U","NORAD_CAT_ID":54823,"ELEMENT_SET_NO":999,"REV_AT_EPOCH":17688,"BSTAR":-1.6203346e-5,"MEAN_MOTION_DOT":-4.22e-6,"MEAN_MOTION_DDOT":0},{"OBJECT_NAME":"PEGASUS R\/B","OBJECT_ID":"1998-071B","EPOCH":"2026-03-09T18:27:50.570784","MEAN_MOTION":15.03047703,"ECCENTRICITY":0.0004531,"INCLINATION":69.9123,"RA_OF_ASC_NODE":198.9358,"ARG_OF_PERICENTER":7.5622,"MEAN_ANOMALY":352.5606,"EPHEMERIS_TYPE":0,"CLASSIFICATION_TYPE":"U","NORAD_CAT_ID":25561,"ELEMENT_SET_NO":999,"REV_AT_EPOCH":48091,"BSTAR":0.00030278547,"MEAN_MOTION_DOT":3.992e-5,"MEAN_MOTION_DDOT":0}]
